ONEWEB-0233             
1 48795U 21045AE  24157.22312628  .00000209  00000+0  52222-3 0  9996
2 48795  87.9052  46.8921 0001963  85.5401 274.5954 13.15547012147858
ONEWEB-0190             
1 48796U 21045AF  24156.45860056  .00000161  00000+0  39378-3 0  9998
2 48796  87.9054  47.0077 0002840  89.8459 270.2997 13.15547897146716
ONEWEB-0236             
1 48797U 21045AG  24157.16054458  .00000084  00000+0  18929-3 0  9992
2 48797  87.9059  46.8614 0002018  78.1368 281.9988 13.15547960147815
ONEWEB-0248             
1 48798U 21045AH  24157.17322048 -.00000001  00000+0 -36465-4 0  9994
2 48798  87.9048  46.8507 0002666  74.5304 285.6121 13.15547757147975
ONEWEB-0225             
1 48799U 21045AJ  24156.96723007  .00000014  00000+0  34086-5 0  9991
2 48799  87.9050  46.9029 0002371  83.1293 277.0107 13.15547629146836
ONEWEB-0215             
1 48800U 21045AK  24157.16529507  .00000008  00000+0 -12009-4 0  9990
2 48800  87.9050  46.8384 0002814  80.8458 279.2990 13.15547187147857
ONEWEB-0216             
1 48801U 21045AL  24156.94662441 -.00000097  00000+0 -29044-3 0  9996
2 48801  87.9051  46.9223 0001918  89.5841 270.5509 13.15547135146715
ONEWEB-0239             
1 48802U 21045AM  24156.41898629 -.00000083  00000+0 -25499-3 0  9993
2 48802  87.9059  47.0022 0002862  75.5477 284.5970 13.15547268146682
